ORBCOMM FM103           
1 40091U 14040F   24118.53217745  .00001854  00000+0  44984-3 0  9992
2 40091  47.0033 178.3374 0002038 202.5822 157.4973 14.56528603520531
ORBCOMM FM114           
1 41179U 15081A   24119.32051647  .00002307  00000+0  55026-3 0  9994
2 41179  47.0015  83.9097 0002108 259.0538 101.0110 14.56551695444003
ORBCOMM FM119           
1 41180U 15081B   24118.94736471  .00001966  00000+0  47486-3 0  9999
2 41180  47.0010 354.8573 0001782 296.9238  63.1464 14.56516876445152
ORBCOMM FM105           
1 41181U 15081C   24118.81678413  .00000970  00000+0  32466-3 0  9993
2 41181  47.0020 321.2283 0002293 260.1944  99.8677 14.44350934440688
ORBCOMM FM110           
1 41182U 15081D   24119.16051709  .00002078  00000+0  49948-3 0  9990
2 41182  47.0003  84.0719 0001448  36.2211 323.8772 14.56540955443987
ORBCOMM FM118           
1 41183U 15081E   24119.20638682  .00001746  00000+0  42594-3 0  9998
2 41183  47.0030  84.1588 0001545  31.3953 328.7023 14.56528340443998
ORBCOMM FM112           
1 41184U 15081F   24118.92497439  .00002781  00000+0  65567-3 0  9995
2 41184  46.9988 354.1852 0001434 279.2656  80.8067 14.56552987445094
ORBCOMM FM113           
1 41185U 15081G   24119.03929291  .00002596  00000+0  61457-3 0  9993
2 41185  47.0009 353.9104 0001141 294.6979  65.3787 14.56547157445160
